{"type": "FeatureCollection", "features": [ {"type": "Feature", "properties": {"norad_id": 43623, "name": "BEIDOU-3 M14 (C33)", "group": "beidou", "lat": 56.35284402311043, "lon": 164.65607278765788, "alt_km": 21525.502770241066, "timestamp": "2025-12-06T05:40:09.506822+00:00", "meta": {"OBJECT_NAME": "BEIDOU-3 M14 (C33)", "OBJECT_ID": "2018-072B", "EPOCH": "2025-12-02T08:07:43.843296", "MEAN_MOTION": 1.86230716, "ECCENTRICITY": 0.00030503, "INCLINATION": 56.4518, "RA_OF_ASC_NODE": 69.1588, "ARG_OF_PERICENTER": 335.8375, "MEAN_ANOMALY": 24.1509, "EPHEMERIS_TYPE": 0, "CLASSIFICATION_TYPE": "U", "NORAD_CAT_ID": 43623, "ELEMENT_SET_NO": 999, "REV_AT_EPOCH": 4898, "BSTAR": 0, "MEAN_MOTION_DOT": -4.6e-07, "MEAN_MOTION_DDOT": 0}, "tle": {"line1": "1 43623U 18072B   25336.33870189 -.00000046  00000+0  00000+0 0  9993", "line2": "2 43623  56.4518  69.1588 0003050 335.8375  24.1509  1.86230716 48982"}}, "geometry": {"type": "Point", "coordinates": [164.65607278765788, 56.35284402311043]}}, {"type": "Feature", "properties": {"norad_id": 43647, "name": "BEIDOU-3 M16 (C35)", "group": "beidou", "lat": -10.376275855643863, "lon": -60.844326186856584, "alt_km": 21512.911590129923, "timestamp": "2025-12-06T05:40:09.506833+00:00", "meta": {"OBJECT_NAME": "BEIDOU-3 M16 (C35)", "OBJECT_ID": "2018-078A", "EPOCH": "2025-12-03T00:48:25.625088", "MEAN_MOTION": 1.86232114, "ECCENTRICITY": 0.00069753, "INCLINATION": 54.271, "RA_OF_ASC_NODE": 306.8606, "ARG_OF_PERICENTER": 18.45, "MEAN_ANOMALY": 341.5609, "EPHEMERIS_TYPE": 0, "CLASSIFICATION_TYPE": "U", "NORAD_CAT_ID": 43647, "ELEMENT_SET_NO": 999, "REV_AT_EPOCH": 4850, "BSTAR": 0, "MEAN_MOTION_DOT": -6.5e-07, "MEAN_MOTION_DDOT": 0}, "tle": {"line1": "1 43647U 18078A   25337.03362992 -.00000065  00000+0  00000+0 0  9992", "line2": "2 43647  54.2710 306.8606 0006975  18.4500 341.5609  1.86232114 48502"}}, "geometry": {"type": "Point", "coordinates": [-60.844326186856584, -10.376275855643863]}}, {"type": "Feature", "properties": {"norad_id": 43648, "name": "BEIDOU-3 M15 (C34)", "group": "beidou", "lat": -53.20079725112651, "lon": -159.1498656330815, "alt_km": 21538.352166707664, "timestamp": "2025-12-06T05:40:09.506845+00:00", "meta": {"OBJECT_NAME": "BEIDOU-3 M15 (C34)", "OBJECT_ID": "2018-078B", "EPOCH": "2025-12-04T18:34:06.240576", "MEAN_MOTION": 1.86231976, "ECCENTRICITY": 0.00036768, "INCLINATION": 54.2651, "RA_OF_ASC_NODE": 306.8006, "ARG_OF_PERICENTER": 17.6668, "MEAN_ANOMALY": 342.3282, "EPHEMERIS_TYPE": 0, "CLASSIFICATION_TYPE": "U", "NORAD_CAT_ID": 43648, "ELEMENT_SET_NO": 999, "REV_AT_EPOCH": 4855, "BSTAR": 0, "MEAN_MOTION_DOT": -6.9e-07, "MEAN_MOTION_DDOT": 0}, "tle": {"line1": "1 43648U 18078B   25338.77368334 -.00000069  00000+0  00000+0 0  9995", "line2": "2 43648  54.2651 306.8006 0003676  17.6668 342.3282  1.86231976 48558"}}, "geometry": {"type": "Point", "coordinates": [-159.1498656330815, -53.20079725112651]}}, {"type": "Feature", "properties": {"norad_id": 43683, "name": "BEIDOU-3 G1 (C59)", "group": "beidou", "lat": -0.7836322571778824, "lon": -59.63027541009862, "alt_km": 35791.44462572261, "timestamp": "2025-12-06T05:40:09.506857+00:00", "meta": {"OBJECT_NAME": "BEIDOU-3 G1 (C59)", "OBJECT_ID": "2018-085A", "EPOCH": "2025-12-05T07:30:56.529792", "MEAN_MOTION": 1.00273004, "ECCENTRICITY": 0.00019533, "INCLINATION": 2.5878, "RA_OF_ASC_NODE": 103.1782, "ARG_OF_PERICENTER": 64.9746, "MEAN_ANOMALY": 159.0072, "EPHEMERIS_TYPE": 0, "CLASSIFICATION_TYPE": "U", "NORAD_CAT_ID": 43683, "ELEMENT_SET_NO": 999, "REV_AT_EPOCH": 2611, "BSTAR": 0, "MEAN_MOTION_DOT": -2.66e-06, "MEAN_MOTION_DDOT": 0}, "tle": {"line1": "1 43683U 18085A   25339.31315428 -.00000266  00000+0  00000+0 0  9998", "line2": "2 43683   2.5878 103.1782 0001953  64.9746 159.0072  1.00273004 26113"}}, "geometry": {"type": "Point", "coordinates": [-59.63027541009862, -0.7836322571778824]}}, {"type": "Feature", "properties": {"norad_id": 43706, "name": "BEIDOU-3 M17 (C36)", "group": "beidou", "lat": 20.607039797963537, "lon": -6.914949025013845, "alt_km": 21541.49252102268, "timestamp": "2025-12-06T05:40:09.506868+00:00", "meta": {"OBJECT_NAME": "BEIDOU-3 M17 (C36)", "OBJECT_ID": "2018-093A", "EPOCH": "2025-12-03T14:10:37.280064", "MEAN_MOTION": 1.86228161, "ECCENTRICITY": 0.00063465, "INCLINATION": 54.1727, "RA_OF_ASC_NODE": 188.9327, "ARG_OF_PERICENTER": 306.3477, "MEAN_ANOMALY": 234.3147, "EPHEMERIS_TYPE": 0, "CLASSIFICATION_TYPE": "U", "NORAD_CAT_ID": 43706, "ELEMENT_SET_NO": 999, "REV_AT_EPOCH": 4789, "BSTAR": 0, "MEAN_MOTION_DOT": 1.14e-06, "MEAN_MOTION_DDOT": 0}, "tle": {"line1": "1 43706U 18093A   25337.59070926  .00000114  00000+0  00000+0 0  9993", "line2": "2 43706  54.1727 188.9327 0006346 306.3477 234.3147  1.86228161 47892"}}, "geometry": {"type": "Point", "coordinates": [-6.914949025013845, 20.607039797963537]}}, {"type": "Feature", "properties": {"norad_id": 43707, "name": "BEIDOU-3 M18 (C37)", "group": "beidou", "lat": -48.322901454167486, "lon": 63.10439844479147, "alt_km": 21538.309384395463, "timestamp": "2025-12-06T05:40:09.506880+00:00", "meta": {"OBJECT_NAME": "BEIDOU-3 M18 (C37)", "OBJECT_ID": "2018-093B", "EPOCH": "2025-12-04T06:09:34.457184", "MEAN_MOTION": 1.86226429, "ECCENTRICITY": 0.0006367, "INCLINATION": 54.1734, "RA_OF_ASC_NODE": 188.9019, "ARG_OF_PERICENTER": 351.3735, "MEAN_ANOMALY": 8.7081, "EPHEMERIS_TYPE": 0, "CLASSIFICATION_TYPE": "U", "NORAD_CAT_ID": 43707, "ELEMENT_SET_NO": 999, "REV_AT_EPOCH": 4790, "BSTAR": 0, "MEAN_MOTION_DOT": 1.06e-06, "MEAN_MOTION_DDOT": 0}, "tle": {"line1": "1 43707U 18093B   25338.25664881  .00000106  00000+0  00000+0 0  9998", "line2": "2 43707  54.1734 188.9019 0006367 351.3735   8.7081  1.86226429 47906"}}, "geometry": {"type": "Point", "coordinates": [63.10439844479147, -48.322901454167486]}}, {"type": "Feature", "properties": {"norad_id": 44204, "name": "BEIDOU-3 IGSO-1 (C38)", "group": "beidou", "lat": -43.912224907536924, "lon": -104.07497994841442, "alt_km": 35687.20691653575, "timestamp": "2025-12-06T05:40:09.506892+00:00", "meta": {"OBJECT_NAME": "BEIDOU-3 IGSO-1 (C38)", "OBJECT_ID": "2019-023A", "EPOCH": "2025-11-19T14:15:02.708640", "MEAN_MOTION": 1.00252177, "ECCENTRICITY": 0.0026966, "INCLINATION": 58.4003, "RA_OF_ASC_NODE": 39.8168, "ARG_OF_PERICENTER": 221.2202, "MEAN_ANOMALY": 126.9723, "EPHEMERIS_TYPE": 0, "CLASSIFICATION_TYPE": "U", "NORAD_CAT_ID": 44204, "ELEMENT_SET_NO": 999, "REV_AT_EPOCH": 510, "BSTAR": 0, "MEAN_MOTION_DOT": -2.26e-06, "MEAN_MOTION_DDOT": 0}, "tle": {"line1": "1 44204U 19023A   25323.59378135 -.00000226  00000+0  00000+0 0  9994", "line2": "2 44204  58.4003  39.8168 0026966 221.2202 126.9723  1.00252177  5102"}}, "geometry": {"type": "Point", "coordinates": [-104.07497994841442, -43.912224907536924]}}, {"type": "Feature", "properties": {"norad_id": 44231, "name": "BEIDOU-2 G8 (C01)", "group": "beidou", "lat": -1.2755014208599567, "lon": -55.18410440244973, "alt_km": 35754.63438177814, "timestamp": "2025-12-06T05:40:09.506906+00:00", "meta": {"OBJECT_NAME": "BEIDOU-2 G8 (C01)", "OBJECT_ID": "2019-027A", "EPOCH": "2025-12-05T07:32:11.410080", "MEAN_MOTION": 1.00269636, "ECCENTRICITY": 0.0008455, "INCLINATION": 1.6419, "RA_OF_ASC_NODE": 74.7087, "ARG_OF_PERICENTER": 254.7332, "MEAN_ANOMALY": 2.5419, "EPHEMERIS_TYPE": 0, "CLASSIFICATION_TYPE": "U", "NORAD_CAT_ID": 44231, "ELEMENT_SET_NO": 999, "REV_AT_EPOCH": 2413, "BSTAR": 0, "MEAN_MOTION_DOT": -2.36e-06, "MEAN_MOTION_DDOT": 0}, "tle": {"line1": "1 44231U 19027A   25339.31402095 -.00000236  00000+0  00000+0 0  9999", "line2": "2 44231   1.6419  74.7087 0008455 254.7332   2.5419  1.00269636 24132"}}, "geometry": {"type": "Point", "coordinates": [-55.18410440244973, -1.2755014208599567]}}, {"type": "Feature", "properties": {"norad_id": 44337, "name": "BEIDOU-3 IGSO-2 (C39)", "group": "beidou", "lat": 45.93882218684291, "lon": -65.4478036763807, "alt_km": 35762.24718717803, "timestamp": "2025-12-06T05:40:09.506918+00:00", "meta": {"OBJECT_NAME": "BEIDOU-3 IGSO-2 (C39)", "OBJECT_ID": "2019-035A", "EPOCH": "2025-12-01T05:17:49.661952", "MEAN_MOTION": 1.00274502, "ECCENTRICITY": 0.00376064, "INCLINATION": 55.2223, "RA_OF_ASC_NODE": 160.6035, "ARG_OF_PERICENTER": 202.2564, "MEAN_ANOMALY": 266.4761, "EPHEMERIS_TYPE": 0, "CLASSIFICATION_TYPE": "U", "NORAD_CAT_ID": 44337, "ELEMENT_SET_NO": 999, "REV_AT_EPOCH": 2368, "BSTAR": 0, "MEAN_MOTION_DOT": -2.5e-07, "MEAN_MOTION_DDOT": 0}, "tle": {"line1": "1 44337U 19035A   25335.22071368 -.00000025  00000+0  00000+0 0  9992", "line2": "2 44337  55.2223 160.6035 0037606 202.2564 266.4761  1.00274502 23688"}}, "geometry": {"type": "Point", "coordinates": [-65.4478036763807, 45.93882218684291]}}, {"type": "Feature", "properties": {"norad_id": 44542, "name": "BEIDOU-3 M24 (C46)", "group": "beidou", "lat": -15.821787233243958, "lon": 20.96086529188619, "alt_km": 21557.124897783186, "timestamp": "2025-12-06T05:40:09.506931+00:00", "meta": {"OBJECT_NAME": "BEIDOU-3 M24 (C46)", "OBJECT_ID": "2019-061A", "EPOCH": "2025-12-04T20:45:16.055424", "MEAN_MOTION": 1.86229249, "ECCENTRICITY": 0.00095755, "INCLINATION": 54.4001, "RA_OF_ASC_NODE": 189.282, "ARG_OF_PERICENTER": 24.0464, "MEAN_ANOMALY": 336.0883, "EPHEMERIS_TYPE": 0, "CLASSIFICATION_TYPE": "U", "NORAD_CAT_ID": 44542, "ELEMENT_SET_NO": 999, "REV_AT_EPOCH": 4217, "BSTAR": 0, "MEAN_MOTION_DOT": 9.8e-07, "MEAN_MOTION_DDOT": 0}, "tle": {"line1": "1 44542U 19061A   25338.86476916  .00000098  00000+0  00000+0 0  9999", "line2": "2 44542  54.4001 189.2820 0009575  24.0464 336.0883  1.86229249 42179"}}, "geometry": {"type": "Point", "coordinates": [20.96086529188619, -15.821787233243958]}}]}